[{"OBJECT_NAME":"STARLINK-1080","OBJECT_ID":"2020-001AZ","EPOCH":"2026-03-09T20:59:34.461888","MEAN_MOTION":15.47300458,"ECCENTRICITY":0.00070389,"INCLINATION":53.0522,"RA_OF_ASC_NODE":287.315,"ARG_OF_PERICENTER":121.0745,"MEAN_ANOMALY":239.0954,"EPHEMERIS_TYPE":0,"CLASSIFICATION_TYPE":"U","NORAD_CAT_ID":44961,"ELEMENT_SET_NO":999,"REV_AT_EPOCH":34070,"BSTAR":0.0022013341,"MEAN_MOTION_DOT":0.00115497,"MEAN_MOTION_DDOT":0},{"OBJECT_NAME":"STARLINK-36755","OBJECT_ID":"2026-026F","EPOCH":"2026-03-09T22:00:01.999584","MEAN_MOTION":15.49128002,"ECCENTRICITY":0.00016019,"INCLINATION":97.2848,"RA_OF_ASC_NODE":123.3997,"ARG_OF_PERICENTER":81.336,"MEAN_ANOMALY":252.8297,"EPHEMERIS_TYPE":0,"CLASSIFICATION_TYPE":"U","NORAD_CAT_ID":67726,"ELEMENT_SET_NO":999,"REV_AT_EPOCH":535,"BSTAR":0.0014087588,"MEAN_MOTION_DOT":0.00077118,"MEAN_MOTION_DDOT":0}]
